start=new Date('2023-04-07T00:00:00.000Z').valueOf();
sats=[{"RCS_SIZE":"LARGE","MEAN_MOTION_DDOT":"0.0000000000000","EPHEMERIS_TYPE":"0","ECCENTRICITY":"0.00015720","TLE_LINE2":"2 55589  43.0014  46.4894 0001572 258.3425 332.2903 15.02543450  1300","LAUNCH_DATE":"2023-02-12","EPOCH":"2023-04-06T22:00:00.999936","TLE_LINE1":"1 55589U 23020W   23096.91667824 -.00000824  00000-0 -45894-4 0  9992","FILE":"3882049","MEAN_MOTION":"15.02543450","MEAN_ELEMENT_THEORY":"SGP4","MEAN_ANOMALY":"332.2903","CENTER_NAME":"EARTH","REF_FRAME":"TEME","DECAY_DATE":null,"PERIOD":"95.837","CLASSIFICATION_TYPE":"U","NORAD_CAT_ID":"55589","BSTAR":"-0.00004589400000","ARG_OF_PERICENTER":"258.3425","INCLINATION":"43.0014","APOAPSIS":"560.149","SEMIMAJOR_AXIS":"6937.194","MEAN_MOTION_DOT":"-0.00000824","RA_OF_ASC_NODE":"46.4894","COUNTRY_CODE":"US","SITE":"AFETR","OBJECT_NAME":"STARLINK-5697","REV_AT_EPOCH":"130","OBJECT_ID":"2023-020W","TIME_SYSTEM":"UTC","OBJECT_TYPE":"PAYLOAD","ELEMENT_SET_NO":"999","GP_ID":"229646160","PERIAPSIS":"557.968"},{"ARG_OF_PERICENTER":"272.4855","BSTAR":"0.00070211000000","NORAD_CAT_ID":"55590","CLASSIFICATION_TYPE":"U","OBJECT_NAME":"STARLINK-5762","SITE":"AFETR","RA_OF_ASC_NODE":"49.5472","COUNTRY_CODE":"US","SEMIMAJOR_AXIS":"6931.178","MEAN_MOTION_DOT":"0.00009801","INCLINATION":"43.0007","APOAPSIS":"554.021","OBJECT_ID":"2023-020X","TIME_SYSTEM":"UTC","REV_AT_EPOCH":"821","PERIAPSIS":"552.065","ELEMENT_SET_NO":"999","GP_ID":"229614067","OBJECT_TYPE":"PAYLOAD","TLE_LINE2":"2 55590  43.0007  49.5472 0001411 272.4855  87.5827 15.04500065  8215","ECCENTRICITY":"0.00014110","MEAN_MOTION_DDOT":"0.0000000000000","EPHEMERIS_TYPE":"0","RCS_SIZE":"LARGE","EPOCH":"2023-04-06T08:00:42.340896","LAUNCH_DATE":"2023-02-12","MEAN_MOTION":"15.04500065","FILE":"3881771","TLE_LINE1":"1 55590U 23020X   23096.33382339  .00009801  00000-0  70211-3 0  9997","DECAY_DATE":null,"PERIOD":"95.713","REF_FRAME":"TEME","MEAN_ANOMALY":"87.5827","CENTER_NAME":"EARTH","MEAN_ELEMENT_THEORY":"SGP4"},{"RA_OF_ASC_NODE":"46.4604","COUNTRY_CODE":"US","OBJECT_NAME":"STARLINK-5760","SITE":"AFETR","APOAPSIS":"559.985","INCLINATION":"43.0013","MEAN_MOTION_DOT":"0.00004001","SEMIMAJOR_AXIS":"6937.211","ARG_OF_PERICENTER":"258.7457","CLASSIFICATION_TYPE":"U","NORAD_CAT_ID":"55591","BSTAR":"0.00031105000000","PERIAPSIS":"558.166","OBJECT_TYPE":"PAYLOAD","GP_ID":"229647160","ELEMENT_SET_NO":"999","OBJECT_ID":"2023-020Y","TIME_SYSTEM":"UTC","REV_AT_EPOCH":"130","EPOCH":"2023-04-06T22:00:00.999936","LAUNCH_DATE":"2023-02-12","EPHEMERIS_TYPE":"0","MEAN_MOTION_DDOT":"0.0000000000000","ECCENTRICITY":"0.00013110","TLE_LINE2":"2 55591  43.0013  46.4604 0001311 258.7457 343.9001 15.02537882  1301","RCS_SIZE":"LARGE","PERIOD":"95.838","DECAY_DATE":null,"CENTER_NAME":"EARTH","MEAN_ANOMALY":"343.9001","MEAN_ELEMENT_THEORY":"SGP4","REF_FRAME":"TEME","FILE":"3882049","MEAN_MOTION":"15.02537882","TLE_LINE1":"1 55591U 23020Y   23096.91667824  .00004001  00000-0  31105-3 0  9993"},{"REV_AT_EPOCH":"821","TIME_SYSTEM":"UTC","OBJECT_ID":"2023-020Z","ELEMENT_SET_NO":"999","GP_ID":"229613065","OBJECT_TYPE":"PAYLOAD","PERIAPSIS":"551.866","BSTAR":"0.00194020000000","NORAD_CAT_ID":"55592","CLASSIFICATION_TYPE":"U","ARG_OF_PERICENTER":"253.7270","SEMIMAJOR_AXIS":"6931.070","MEAN_MOTION_DOT":"0.00027545","INCLINATION":"43.0003","APOAPSIS":"554.004","SITE":"AFETR","OBJECT_NAME":"STARLINK-5759","RA_OF_ASC_NODE":"49.5421","COUNTRY_CODE":"US","TLE_LINE1":"1 55592U 23020Z   23096.33305622  .00027545  00000-0  19402-2 0  9998","MEAN_MOTION":"15.04535059","FILE":"3881771","REF_FRAME":"TEME","MEAN_ANOMALY":"106.3403","MEAN_ELEMENT_THEORY":"SGP4","CENTER_NAME":"EARTH","DECAY_DATE":null,"PERIOD":"95.711","RCS_SIZE":"LARGE","ECCENTRICITY":"0.00015420","TLE_LINE2":"2 55592  43.0003  49.5421 0001542 253.7270 106.3403 15.04535059  8216","EPHEMERIS_TYPE":"0","MEAN_MOTION_DDOT":"0.0000000000000","LAUNCH_DATE":"2023-02-12","EPOCH":"2023-04-06T07:59:36.057408"},{"LAUNCH_DATE":"2023-02-12","EPOCH":"2023-04-06T08:04:10.943328","RCS_SIZE":"LARGE","MEAN_MOTION_DDOT":"0.0000000000000","EPHEMERIS_TYPE":"0","ECCENTRICITY":"0.00011850","TLE_LINE2":"2 55593  43.0012  49.5626 0001185 261.3199  98.7510 15.04504743  8211","MEAN_ANOMALY":"98.7510","MEAN_ELEMENT_THEORY":"SGP4","CENTER_NAME":"EARTH","REF_FRAME":"TEME","DECAY_DATE":null,"PERIOD":"95.713","TLE_LINE1":"1 55593U 23020AA  23096.33623777  .00008672  00000-0  62293-3 0  9990","FILE":"3881771","MEAN_MOTION":"15.04504743","INCLINATION":"43.0012","APOAPSIS":"553.850","SEMIMAJOR_AXIS":"6931.163","MEAN_MOTION_DOT":"0.00008672","RA_OF_ASC_NODE":"49.5626","COUNTRY_CODE":"US","SITE":"AFETR","OBJECT_NAME":"STARLINK-5703","NORAD_CAT_ID":"55593","CLASSIFICATION_TYPE":"U","BSTAR":"0.00062293000000","ARG_OF_PERICENTER":"261.3199","OBJECT_TYPE":"PAYLOAD","ELEMENT_SET_NO":"999","GP_ID":"229613817","PERIAPSIS":"552.207","REV_AT_EPOCH":"821","TIME_SYSTEM":"UTC","OBJECT_ID":"2023-020AA"},{"SEMIMAJOR_AXIS":"6931.206","MEAN_MOTION_DOT":"0.00002355","INCLINATION":"43.0000","APOAPSIS":"553.927","OBJECT_NAME":"STARLINK-5750","SITE":"AFETR","COUNTRY_CODE":"US","RA_OF_ASC_NODE":"46.2610","BSTAR":"0.00017998000000","CLASSIFICATION_TYPE":"U","NORAD_CAT_ID":"55594","ARG_OF_PERICENTER":"262.0540","ELEMENT_SET_NO":"999","GP_ID":"229618957","OBJECT_TYPE":"PAYLOAD","PERIAPSIS":"552.215","REV_AT_EPOCH":"830","TIME_SYSTEM":"UTC","OBJECT_ID":"2023-020AB","LAUNCH_DATE":"2023-02-12","EPOCH":"2023-04-06T22:15:38.676672","RCS_SIZE":"LARGE","ECCENTRICITY":"0.00012350","TLE_LINE2":"2 55594  43.0000  46.2610 0001235 262.0540  98.0163 15.04490773  8304","MEAN_MOTION_DDOT":"0.0000000000000","EPHEMERIS_TYPE":"0","REF_FRAME":"TEME","MEAN_ANOMALY":"98.0163","CENTER_NAME":"EARTH","MEAN_ELEMENT_THEORY":"SGP4","DECAY_DATE":null,"PERIOD":"95.713","TLE_LINE1":"1 55594U 23020AB  23096.92753098  .00002355  00000-0  17998-3 0  9990","MEAN_MOTION":"15.04490773","FILE":"3881949"},{"LAUNCH_DATE":"2023-02-12","EPOCH":"2023-04-06T07:53:41.210016","RCS_SIZE":"LARGE","TLE_LINE2":"2 55595  43.0016  49.5076 0001346 241.5611 118.5096 15.02542630  8219","ECCENTRICITY":"0.00013460","EPHEMERIS_TYPE":"0","MEAN_MOTION_DDOT":"0.0000000000000","REF_FRAME":"TEME","MEAN_ANOMALY":"118.5096","MEAN_ELEMENT_THEORY":"SGP4","CENTER_NAME":"EARTH","DECAY_DATE":null,"PERIOD":"95.838","TLE_LINE1":"1 55595U 23020AC  23096.32894919  .00000562  00000-0  56672-4 0  9994","MEAN_MOTION":"15.02542630","FILE":"3881771","SEMIMAJOR_AXIS":"6937.196","MEAN_MOTION_DOT":"0.00000562","INCLINATION":"43.0016","APOAPSIS":"559.995","OBJECT_NAME":"STARLINK-5740","SITE":"AFETR","RA_OF_ASC_NODE":"49.5076","COUNTRY_CODE":"US","BSTAR":"0.00005667200000","NORAD_CAT_ID":"55595","CLASSIFICATION_TYPE":"U","ARG_OF_PERICENTER":"241.5611","ELEMENT_SET_NO":"999","GP_ID":"229613316","OBJECT_TYPE":"PAYLOAD","PERIAPSIS":"558.127","REV_AT_EPOCH":"821","TIME_SYSTEM":"UTC","OBJECT_ID":"2023-020AC"},{"EPOCH":"2023-04-06T22:14:33.300384","LAUNCH_DATE":"2023-02-12","MEAN_MOTION_DDOT":"0.0000000000000","EPHEMERIS_TYPE":"0","TLE_LINE2":"2 55596  43.0017  46.2564 0001273 263.8105  96.2593 15.04482909  8309","ECCENTRICITY":"0.00012730","RCS_SIZE":"LARGE","PERIOD":"95.714","DECAY_DATE":null,"CENTER_NAME":"EARTH","MEAN_ANOMALY":"96.2593","MEAN_ELEMENT_THEORY":"SGP4","REF_FRAME":"TEME","FILE":"3881948","MEAN_MOTION":"15.04482909","TLE_LINE1":"1 55596U 23020AD  23096.92677431  .00000347  00000-0  38949-4 0  9997","COUNTRY_CODE":"US","RA_OF_ASC_NODE":"46.2564","SITE":"AFETR","OBJECT_NAME":"STARLINK-5729","APOAPSIS":"553.978","INCLINATION":"43.0017","MEAN_MOTION_DOT":"0.00000347","SEMIMAJOR_AXIS":"6931.230","ARG_OF_PERICENTER":"263.8105","CLASSIFICATION_TYPE":"U","NORAD_CAT_ID":"55596","BSTAR":"0.00003894900000","PERIAPSIS":"552.213","OBJECT_TYPE":"PAYLOAD","GP_ID":"229618971","ELEMENT_SET_NO":"999","TIME_SYSTEM":"UTC","OBJECT_ID":"2023-020AD","REV_AT_EPOCH":"830"},{"MEAN_MOTION_DDOT":"0.0000000000000","EPHEMERIS_TYPE":"0","TLE_LINE2":"2 55597  43.0019  36.3245 0001182 263.8201 225.5892 15.35048152  1308","ECCENTRICITY":"0.00011820","RCS_SIZE":"LARGE","EPOCH":"2023-04-06T22:00:00.999936","LAUNCH_DATE":"2023-02-12","FILE":"3882049","MEAN_MOTION":"15.35048152","TLE_LINE1":"1 55597U 23020AE  23096.91667824 -.00934602  00000-0 -29391-1 0  9992","PERIOD":"93.808","DECAY_DATE":null,"CENTER_NAME":"EARTH","MEAN_ANOMALY":"225.5892","MEAN_ELEMENT_THEORY":"SGP4","REF_FRAME":"TEME","ARG_OF_PERICENTER":"263.8201","NORAD_CAT_ID":"55597","CLASSIFICATION_TYPE":"U","BSTAR":"-0.02939100000000","RA_OF_ASC_NODE":"36.3245","COUNTRY_CODE":"US","OBJECT_NAME":"STARLINK-5743","SITE":"AFETR","APOAPSIS":"461.588","INCLINATION":"43.0019","MEAN_MOTION_DOT":"-0.00934602","SEMIMAJOR_AXIS":"6838.914","TIME_SYSTEM":"UTC","OBJECT_ID":"2023-020AE","REV_AT_EPOCH":"130","PERIAPSIS":"459.971","OBJECT_TYPE":"PAYLOAD","GP_ID":"229646161","ELEMENT_SET_NO":"999"},{"ARG_OF_PERICENTER":"257.8867","BSTAR":"-0.03405400000000","NORAD_CAT_ID":"55598","CLASSIFICATION_TYPE":"U","SITE":"AFETR","OBJECT_NAME":"STARLINK-5756","RA_OF_ASC_NODE":"35.8728","COUNTRY_CODE":"US","SEMIMAJOR_AXIS":"6853.292","MEAN_MOTION_DOT":"-0.00941478","INCLINATION":"43.0005","APOAPSIS":"476.063","TIME_SYSTEM":"UTC","OBJECT_ID":"2023-020AF","REV_AT_EPOCH":"130","PERIAPSIS":"474.251","ELEMENT_SET_NO":"999","GP_ID":"229646411","OBJECT_TYPE":"PAYLOAD","ECCENTRICITY":"0.00013220","TLE_LINE2":"2 55598  43.0005  35.8728 0001322 257.8867  47.3823 15.30220203  1309","EPHEMERIS_TYPE":"0","MEAN_MOTION_DDOT":"0.0000000000000","RCS_SIZE":"LARGE","EPOCH":"2023-04-06T22:00:00.999936","LAUNCH_DATE":"2023-02-12","MEAN_MOTION":"15.30220203","FILE":"3882049","TLE_LINE1":"1 55598U 23020AF  23096.91667824 -.00941478  00000-0 -34054-1 0  9994","DECAY_DATE":null,"PERIOD":"94.104","REF_FRAME":"TEME","MEAN_ANOMALY":"47.3823","MEAN_ELEMENT_THEORY":"SGP4","CENTER_NAME":"EARTH"}];
